{
    "links": {
        "self": "http://www.neowsapp.com/rest/v1/neo/3169269?api_key=iIulBulltgU6a56xZRHN4H3l9WmuAYTsLGpBGhQ2"
    },
    "id": "3169269",
    "neo_reference_id": "3169269",
    "name": "(2003 XK)",
    "designation": "2003 XK",
    "nasa_jpl_url": "http://ssd.jpl.nasa.gov/sbdb.cgi?sstr=3169269",
    "absolute_magnitude_h": 25.9,
    "estimated_diameter": {
        "kilometers": {
            "estimated_diameter_min": 0.0175612318,
            "estimated_diameter_max": 0.0392681082
        },
        "meters": {
            "estimated_diameter_min": 17.561231848,
            "estimated_diameter_max": 39.2681081809
        },
        "miles": {
            "estimated_diameter_min": 0.0109120402,
            "estimated_diameter_max": 0.0244000636
        },
        "feet": {
            "estimated_diameter_min": 57.6155918963,
            "estimated_diameter_max": 128.8323800441
        }
    },
    "is_potentially_hazardous_asteroid": false,
    "close_approach_data": [
        {
            "close_approach_date": "1939-09-25",
            "close_approach_date_full": "1939-Sep-25 20:32",
            "epoch_date_close_approach": -955164480000,
            "relative_velocity": {
                "kilometers_per_second": "17.5410429347",
                "kilometers_per_hour": "63147.7545648127",
                "miles_per_hour": "39237.5589405638"
            },
            "miss_distance": {
                "astronomical": "0.3265730244",
                "lunar": "127.0369064916",
                "kilometers": "48854628.849698028",
                "miles": "30356858.7009596664"
            },
            "orbiting_body": "Earth"
        },
        {
            "close_approach_date": "2003-11-30",
            "close_approach_date_full": "2003-Nov-30 02:38",
            "epoch_date_close_approach": 1070159880000,
            "relative_velocity": {
                "kilometers_per_second": "19.5502479234",
                "kilometers_per_hour": "70380.8925242029",
                "miles_per_hour": "43731.9495798304"
            },
            "miss_distance": {
                "astronomical": "0.0109377479",
                "lunar": "4.2547839331",
                "kilometers": "1636263.788436973",
                "miles": "1016727.1718693074"
            },
            "orbiting_body": "Earth"
        }
    ],
    "orbital_data": {
        "orbit_id": "6",
        "orbit_determination_date": "2017-04-06 09:13:28",
        "first_observation_date": "2003-12-01",
        "last_observation_date": "2003-12-04",
        "data_arc_in_days": 3,
        "observations_used": 10,
        "orbit_uncertainty": "9",
        "minimum_orbit_intersection": ".00106838",
        "jupiter_tisserand_invariant": "3.178",
        "epoch_osculation": "2452977.5",
        "eccentricity": ".7133401331159442",
        "semi_major_axis": "2.319697558794071",
        "inclination": "2.320510668384529",
        "ascending_node_longitude": "246.6106717626094",
        "orbital_period": "1290.462756409624",
        "perihelion_distance": ".6649641934151774",
        "perihelion_argument": "104.1154708719824",
        "aphelion_distance": "3.974430924172964",
        "perihelion_time": "2452930.316728242567",
        "mean_anomaly": "13.16270287407203",
        "mean_motion": ".2789696937876813",
        "equinox": "J2000",
        "orbit_class": {
            "orbit_class_type": "APO",
            "orbit_class_description": "Near-Earth asteroid orbits which cross the Earth’s orbit similar to that of 1862 Apollo",
            "orbit_class_range": "a (semi-major axis) > 1.0 AU; q (perihelion) < 1.017 AU"
        }
    },
    "is_sentry_object": false
}